NORAD_CAT_ID,OBJECT_NAME,OBJECT_TYPE,EPOCH,MEAN_MOTION,ECCENTRICITY,INCLINATION,RA_OF_ASC_NODE,ARG_OF_PERICENTER,MEAN_ANOMALY,BSTAR,MEAN_MOTION_DOT,MEAN_MOTION_DDOT,TLE_LINE0,TLE_LINE1,TLE_LINE2,SEMIMAJOR_AXIS,PERIOD,APOGEE,PERIGEE,DECAYED
54089.0,STARLINK-5143,PAYLOAD,2022-11-07 08:00:01,15.73164378,0.0001979,53.2162,60.1651,28.3613,185.9278,0.00051933,0.00072789,0.0,0 STARLINK-5143,1 54089U 22136AQ  22311.33334491  .00072789  00000-0  51933-3 0  9996,2 54089  53.2162  60.1651 0001979  28.3613 185.9278 15.73164378  3283,6727.996999999999,91.535,351.1930000000001,348.53,0.0
54089.0,STARLINK-5143,PAYLOAD,2022-11-07 14:00:01,15.73068074,0.0001981,53.2159,58.9299,37.9697,152.9344,0.00030899,0.00042723,0.0,0 STARLINK-5143,1 54089U 22136AQ  22311.58334491  .00042723  00000-0  30899-3 0  9996,2 54089  53.2159  58.9299 0001981  37.9697 152.9344 15.73068074  3322,6728.271,91.541,351.469,348.80300000000005,0.0
54089.0,STARLINK-5143,PAYLOAD,2022-11-07 22:00:00,15.73122014,0.0001936,53.2155,57.2803,34.4573,245.2309,-0.00048921,-0.00068499,0.0,0 STARLINK-5143,1 54089U 22136AQ  22311.91667824 -.00068499  00000-0 -48921-3 0  9997,2 54089  53.2155  57.2803 0001936  34.4573 245.2309 15.73122014  1304,6728.118,91.538,351.285,348.68,0.0
54089.0,STARLINK-5143,PAYLOAD,2022-11-08 00:00:02,15.73147645,0.000189,53.2157,56.8673,34.4196,357.5735,-4.3541e-05,-6.713e-05,0.0,0 STARLINK-5143,1 54089U 22136AQ  22312.00002315 -.00006713  00000-0 -43541-4 0  9991,2 54089  53.2157  56.8673 0001890  34.4196 357.5735 15.73147645  3394,6728.044,91.536,351.181,348.63800000000015,0.0
54089.0,STARLINK-5143,PAYLOAD,2022-11-08 10:00:01,15.730704800000002,0.0002107,53.2161,54.8061,29.20300000000001,203.7335,-0.00016392,-0.00023436,0.0,0 STARLINK-5143,1 54089U 22136AQ  22312.41668981 -.00023436  00000-0 -16392-3 0  9997,2 54089  53.2161  54.8061 0002107  29.2030 203.7335 15.73070480  3456,6728.264,91.541,351.547,348.712,0.0
54089.0,STARLINK-5143,PAYLOAD,2022-11-08 14:00:01,15.72998936,0.0002274,53.216,53.9826,26.7256,70.5396,0.0011194,0.0015811,0.0,0 STARLINK-5143,1 54089U 22136AQ  22312.58334491  .00158110  00000-0  11194-2 0  9991,2 54089  53.2160  53.9826 0002274  26.7256  70.5396 15.72998936  1304,6728.468000000003,91.545,351.86400000000015,348.80300000000005,0.0
54089.0,STARLINK-5143,PAYLOAD,2022-11-08 22:00:00,15.73180684,0.000224,53.2161,52.333,24.5968,161.3984,0.0013694,0.00195959,0.0,0 STARLINK-5143,1 54089U 22136AQ  22312.91667824  .00195959  00000-0  13694-2 0  9996,2 54089  53.2161  52.3330 0002240  24.5968 161.3984 15.73180684  3530,6727.95,91.534,351.32199999999995,348.30800000000005,0.0
54089.0,STARLINK-5143,PAYLOAD,2022-11-09 06:00:00,15.73273857,0.0002093,53.2162,50.6821,19.5142,255.4858,-1.8355e-05,-3.205e-05,0.0,0 STARLINK-5143,1 54089U 22136AQ  22313.25001157 -.00003205  00000-0 -18355-4 0  9990,2 54089  53.2162  50.6821 0002093  19.5142 255.4858 15.73273857  3586,6727.685,91.529,350.958,348.142,0.0
54089.0,STARLINK-5143,PAYLOAD,2022-11-09 14:00:01,15.73283904,0.0002421,53.2159,49.0346,17.2993,346.7052,0.0010023,0.00142987,0.0,0 STARLINK-5143,1 54089U 22136AQ  22313.58334491  .00142987  00000-0  10023-2 0  9997,2 54089  53.2159  49.0346 0002421  17.2993 346.7052 15.73283904  1302,6727.656,91.528,351.15,347.892,0.0
54089.0,STARLINK-5143,PAYLOAD,2022-11-09 22:00:01,15.73407897,0.0002395,53.2155,47.38399999999999,19.3054,73.84100000000002,-0.0010854,-0.00151608,0.0,0 STARLINK-5143,1 54089U 22136AQ  22313.91668981 -.00151608  00000-0 -10854-2 0  9992,2 54089  53.2155  47.3840 0002395  19.3054  73.8410 15.73407897  3698,6727.303000000001,91.521,350.779,347.556,0.0
54089.0,STARLINK-5143,PAYLOAD,2022-11-10 14:00:01,15.73246514,0.0002583,53.2159,44.0856,23.1012,248.1315,-0.0005893,-0.00082698,0.0,0 STARLINK-5143,1 54089U 22136AQ  22314.58334491 -.00082698  00000-0 -58930-3 0  9992,2 54089  53.2159  44.0856 0002583  23.1012 248.1315 15.73246514  1303,6727.763000000001,91.53,351.365,347.89,0.0
54089.0,STARLINK-5143,PAYLOAD,2022-11-10 22:00:00,15.73225241,0.0002544,53.2159,42.4351,20.1068,340.0658,-0.00063956,-0.00089544,0.0,0 STARLINK-5143,1 54089U 22136AQ  22314.91667824 -.00089544  00000-0 -63956-3 0  9999,2 54089  53.2159  42.4351 0002544  20.1068 340.0658 15.73225241  3858,6727.823,91.532,351.4,347.977,0.0
54089.0,STARLINK-5143,PAYLOAD,2022-11-11 08:00:01,15.7304747,0.0003054,53.2159,40.3729,20.5478,180.7471,0.00030262,0.00041792,0.0,0 STARLINK-5143,1 54089U 22136AQ  22315.33334491  .00041792  00000-0  30262-3 0  9992,2 54089  53.2159  40.3729 0003054  20.5478 180.7471 15.73047470  3915,6728.33,91.542,352.25,348.14,0.0
54089.0,STARLINK-5143,PAYLOAD,2022-11-11 14:00:01,15.728447,0.0004138999999999,53.2156,39.1377,14.5053,163.2614,0.00053523,0.00074048,0.0,0 STARLINK-5143,1 54089U 22136AQ  22315.58334491  .00074048  00000-0  53523-3 0  9994,2 54089  53.2156  39.1377 0004139  14.5053 163.2614 15.72844700  1300,6728.908,91.554,353.55800000000005,347.98800000000006,0.0
54089.0,STARLINK-5143,PAYLOAD,2022-11-11 16:00:01,15.72841326,0.000418,53.2154,38.7257,14.3067,275.658,0.00077811,0.00108359,0.0,0 STARLINK-5143,1 54089U 22136AQ  22315.66668981  .00108359  00000-0  77811-3 0  9996,2 54089  53.2154  38.7257 0004180  14.3067 275.6580 15.72841326  3964,6728.918000000002,91.554,353.596,347.97,0.0
54089.0,STARLINK-5143,PAYLOAD,2022-11-11 22:00:00,15.73858996,0.000409,53.2174,37.4805,15.7022,251.1177,-0.0069093,-0.00898878,0.0,0 STARLINK-5143,1 54089U 22136AQ  22315.91667824 -.00898878  00000-0 -69093-2 0  9995,2 54089  53.2174  37.4805 0004090  15.7022 251.1177 15.73858996  4006,6726.017,91.495,350.6330000000001,345.131,0.0
54089.0,STARLINK-5143,PAYLOAD,2022-11-12 08:00:01,15.73408737,0.0003859,53.2154,35.4257,7.4469,100.0129,0.00035525,0.00049997,0.0,0 STARLINK-5143,1 54089U 22136AQ  22316.33334491  .00049997  00000-0  35525-3 0  9995,2 54089  53.2154  35.4257 0003859   7.4469 100.0129 15.73408737  4078,6727.3,91.521,351.761,346.569,0.0
54089.0,STARLINK-5143,PAYLOAD,2022-11-12 14:00:01,15.73442574,0.0004062,53.2155,34.1896,4.8925,79.4586,-0.00067811,-0.00095757,0.0,0 STARLINK-5143,1 54089U 22136AQ  22316.58334491 -.00095757  00000-0 -67811-3 0  9992,2 54089  53.2155  34.1896 0004062   4.8925  79.4586 15.73442574  4117,6727.204000000002,91.519,351.801,346.336,0.0
54089.0,STARLINK-5143,PAYLOAD,2022-11-12 22:00:00,15.73406546,0.000401,53.2155,32.5382,0.7345,172.8018,-0.0009477,-0.00132794,0.0,0 STARLINK-5143,1 54089U 22136AQ  22316.91667824 -.00132794  00000-0 -94770-3 0  9995,2 54089  53.2155  32.5382 0004010   0.7345 172.8018 15.73406546  1308,6727.306,91.521,351.869,346.474,0.0
54089.0,STARLINK-5143,PAYLOAD,2022-11-13 14:00:01,15.73206067,0.0004248,53.2151,29.2398,2.0953,349.6103,0.00041158,0.00057576,0.0,0 STARLINK-5143,1 54089U 22136AQ  22317.58334491  .00057576  00000-0  41158-3 0  9994,2 54089  53.2151  29.2398 0004248   2.0953 349.6103 15.73206067  4271,6727.878000000002,91.533,352.601,346.885,0.0
54089.0,STARLINK-5143,PAYLOAD,2022-11-13 22:00:00,15.73253064,0.0004067,53.2147,27.5886,0.0982,80.5726,-0.0002901,-0.00041252,0.0,0 STARLINK-5143,1 54089U 22136AQ  22317.91667824 -.00041252  00000-0 -29010-3 0  9999,2 54089  53.2147  27.5886 0004067   0.0982  80.5726 15.73253064  1300,6727.744000000002,91.53,352.345,346.87300000000016,0.0
54089.0,STARLINK-5143,PAYLOAD,2022-11-14 14:00:01,15.73194813,0.0004343999999999,53.2155,24.2898,4.722,253.8888,0.00070872,0.00100052,0.0,0 STARLINK-5143,1 54089U 22136AQ  22318.58334491  .00100052  00000-0  70872-3 0  9998,2 54089  53.2155  24.2898 0004344   4.7220 253.8888 15.73194813  4426,6727.91,91.533,352.6980000000001,346.852,0.0
54089.0,STARLINK-5143,PAYLOAD,2022-11-14 22:00:00,15.73298322,0.0004112,53.2165,22.6357,3.1036,344.4726,-0.0014712999999999,-0.00203194,0.0,0 STARLINK-5143,1 54089U 22136AQ  22318.91667824 -.00203194  00000-0 -14713-2 0  9998,2 54089  53.2165  22.6357 0004112   3.1036 344.4726 15.73298322  1302,6727.615,91.527,352.246,346.713,0.0
54089.0,STARLINK-5143,PAYLOAD,2022-11-15 02:00:01,15.73222512,0.0004028,53.215,21.814,2.0721,209.9859,-0.00021298,-0.0003045,0.0,0 STARLINK-5143,1 54089U 22136AQ  22319.08334491 -.00030450  00000-0 -21298-3 0  9998,2 54089  53.2150  21.8140 0004028   2.0721 209.9859 15.73222512  4507,6727.831,91.532,352.406,346.986,0.0
54089.0,STARLINK-5143,PAYLOAD,2022-11-15 14:00:01,15.73181765,0.0004363,53.2148,19.342,1.7161,163.7475,0.00053944,0.00075743,0.0,0 STARLINK-5143,1 54089U 22136AQ  22319.58334491  .00075743  00000-0  53944-3 0  9998,2 54089  53.2148  19.3420 0004363   1.7161 163.7475 15.73181765  1303,6727.946999999999,91.534,352.74800000000016,346.87699999999984,0.0
54089.0,STARLINK-5143,PAYLOAD,2022-11-15 22:00:00,15.73215989,0.0004123,53.2146,17.6906,1.4456,252.9651,-0.00015484,-0.00022324,0.0,0 STARLINK-5143,1 54089U 22136AQ  22319.91667824 -.00022324  00000-0 -15484-3 0  9990,2 54089  53.2146  17.6906 0004123   1.4456 252.9651 15.73215989  1302,6727.85,91.532,352.48800000000006,346.941,0.0
54089.0,STARLINK-5143,PAYLOAD,2022-11-16 00:00:00,15.73171089,0.0004035,53.2144,17.2778,1.3554,5.3056,0.00048408,0.00067805,0.0,0 STARLINK-5143,1 54089U 22136AQ  22320.00001157  .00067805  00000-0  48408-3 0  9996,2 54089  53.2144  17.2778 0004035   1.3554   5.3056 15.73171089  4655,6727.978,91.535,352.557,347.12800000000016,0.0
54089.0,STARLINK-5143,PAYLOAD,2022-11-16 14:00:01,15.73214412,0.0004326,53.216,14.3902,3.7165,68.6336,-0.000356,-0.00050349,0.0,0 STARLINK-5143,1 54089U 22136AQ  22320.58335648 -.00050349  00000-0 -35600-3 0  9991,2 54089  53.2160  14.3902 0004326   3.7165  68.6336 15.73214412  4748,6727.854,91.532,352.63,346.809,0.0
54089.0,STARLINK-5143,PAYLOAD,2022-11-16 22:00:08,15.73140969,0.0004084,53.2172,12.7357,359.9519,161.7298,0.00068188,0.00095965,0.0,0 STARLINK-5143,1 54089U 22136AQ  22320.91675926  .00095965  00000-0  68188-3 0  9992,2 54089  53.2172  12.7357 0004084 359.9519 161.7298 15.73140969  1303,6728.063,91.537,352.676,347.181,0.0
